{"type": "FeatureCollection", "features": [ {"type": "Feature", "properties": {"norad_id": 29930, "name": "FENGYUN 1C DEB", "group": "fengyun-1c-debris", "lat": -44.84235819226593, "lon": -106.77184303532098, "alt_km": 763.3290850785452, "timestamp": "2025-12-27T12:55:14.777772+00:00", "meta": {"OBJECT_NAME": "FENGYUN 1C DEB", "OBJECT_ID": "1999-025JC", "EPOCH": "2025-12-27T06:55:03.804672", "MEAN_MOTION": 14.20835424, "ECCENTRICITY": 0.01641295, "INCLINATION": 99.0435, "RA_OF_ASC_NODE": 243.8587, "ARG_OF_PERICENTER": 12.1613, "MEAN_ANOMALY": 105.2409, "EPHEMERIS_TYPE": 0, "CLASSIFICATION_TYPE": "U", "NORAD_CAT_ID": 29930, "ELEMENT_SET_NO": 999, "REV_AT_EPOCH": 98097, "BSTAR": 0.00030239097, "MEAN_MOTION_DOT": 7.01e-06, "MEAN_MOTION_DDOT": 0}, "tle": {"line1": "1 29930U 99025JC  25361.28823848  .00000701  00000+0  30239-3 0  9995", "line2": "2 29930  99.0435 243.8587 0164129  12.1613 105.2409 14.20835424980976"}}, "geometry": {"type": "Point", "coordinates": [-106.77184303532098, -44.84235819226593]}}, {"type": "Feature", "properties": {"norad_id": 29931, "name": "FENGYUN 1C DEB", "group": "fengyun-1c-debris", "lat": 41.90922003973066, "lon": -135.48185959833205, "alt_km": 874.2807391015285, "timestamp": "2025-12-27T12:55:14.777782+00:00", "meta": {"OBJECT_NAME": "FENGYUN 1C DEB", "OBJECT_ID": "1999-025JD", "EPOCH": "2025-12-27T02:08:47.019840", "MEAN_MOTION": 14.03906171, "ECCENTRICITY": 0.00324292, "INCLINATION": 98.8588, "RA_OF_ASC_NODE": 36.0341, "ARG_OF_PERICENTER": 54.6924, "MEAN_ANOMALY": 334.6454, "EPHEMERIS_TYPE": 0, "CLASSIFICATION_TYPE": "U", "NORAD_CAT_ID": 29931, "ELEMENT_SET_NO": 999, "REV_AT_EPOCH": 97014, "BSTAR": 0.00013241751, "MEAN_MOTION_DOT": 1.67e-06, "MEAN_MOTION_DDOT": 0}, "tle": {"line1": "1 29931U 99025JD  25361.08943310  .00000167  00000+0  13242-3 0  9992", "line2": "2 29931  98.8588  36.0341 0032429  54.6924 334.6454 14.03906171970141"}}, "geometry": {"type": "Point", "coordinates": [-135.48185959833205, 41.90922003973066]}}, {"type": "Feature", "properties": {"norad_id": 29932, "name": "FENGYUN 1C DEB", "group": "fengyun-1c-debris", "lat": -14.048866212052864, "lon": -170.39256262948388, "alt_km": 867.4033193960931, "timestamp": "2025-12-27T12:55:14.777793+00:00", "meta": {"OBJECT_NAME": "FENGYUN 1C DEB", "OBJECT_ID": "1999-025JE", "EPOCH": "2025-12-26T19:53:50.034048", "MEAN_MOTION": 14.16779542, "ECCENTRICITY": 0.00380893, "INCLINATION": 98.6338, "RA_OF_ASC_NODE": 11.098, "ARG_OF_PERICENTER": 30.7149, "MEAN_ANOMALY": 147.5172, "EPHEMERIS_TYPE": 0, "CLASSIFICATION_TYPE": "U", "NORAD_CAT_ID": 29932, "ELEMENT_SET_NO": 999, "REV_AT_EPOCH": 97783, "BSTAR": 0.00031210082, "MEAN_MOTION_DOT": 5.86e-06, "MEAN_MOTION_DDOT": 0}, "tle": {"line1": "1 29932U 99025JE  25360.82905132  .00000586  00000+0  31210-3 0  9994", "line2": "2 29932  98.6338  11.0980 0038089  30.7149 147.5172 14.16779542977832"}}, "geometry": {"type": "Point", "coordinates": [-170.39256262948388, -14.048866212052864]}}, {"type": "Feature", "properties": {"norad_id": 29933, "name": "FENGYUN 1C DEB", "group": "fengyun-1c-debris", "lat": 18.606302130450715, "lon": 102.73131352372225, "alt_km": 673.656534256741, "timestamp": "2025-12-27T12:55:14.777803+00:00", "meta": {"OBJECT_NAME": "FENGYUN 1C DEB", "OBJECT_ID": "1999-025JF", "EPOCH": "2025-12-27T06:31:53.237280", "MEAN_MOTION": 14.66375103, "ECCENTRICITY": 0.00058898, "INCLINATION": 98.7479, "RA_OF_ASC_NODE": 105.4192, "ARG_OF_PERICENTER": 279.2503, "MEAN_ANOMALY": 135.0772, "EPHEMERIS_TYPE": 0, "CLASSIFICATION_TYPE": "U", "NORAD_CAT_ID": 29933, "ELEMENT_SET_NO": 999, "REV_AT_EPOCH": 98718, "BSTAR": 0.0036883339, "MEAN_MOTION_DOT": 0.00020389, "MEAN_MOTION_DDOT": 0}, "tle": {"line1": "1 29933U 99025JF  25361.27214395  .00020389  00000+0  36883-2 0  9992", "line2": "2 29933  98.7479 105.4192 0005889 279.2503 135.0772 14.66375103987186"}}, "geometry": {"type": "Point", "coordinates": [102.73131352372225, 18.606302130450715]}}, {"type": "Feature", "properties": {"norad_id": 29934, "name": "FENGYUN 1C DEB", "group": "fengyun-1c-debris", "lat": -7.9985053883344674, "lon": -131.67248018389407, "alt_km": 616.7186607421327, "timestamp": "2025-12-27T12:55:14.777813+00:00", "meta": {"OBJECT_NAME": "FENGYUN 1C DEB", "OBJECT_ID": "1999-025JG", "EPOCH": "2025-12-27T02:13:05.904480", "MEAN_MOTION": 14.63922233, "ECCENTRICITY": 0.01011656, "INCLINATION": 98.9026, "RA_OF_ASC_NODE": 49.108, "ARG_OF_PERICENTER": 207.9751, "MEAN_ANOMALY": 151.5989, "EPHEMERIS_TYPE": 0, "CLASSIFICATION_TYPE": "U", "NORAD_CAT_ID": 29934, "ELEMENT_SET_NO": 999, "REV_AT_EPOCH": 99982, "BSTAR": 0.0010687468, "MEAN_MOTION_DOT": 5.966e-05, "MEAN_MOTION_DDOT": 0}, "tle": {"line1": "1 29934U 99025JG  25361.09242945  .00005966  00000+0  10687-2 0  9993", "line2": "2 29934  98.9026  49.1080 0101165 207.9751 151.5989 14.63922233999820"}}, "geometry": {"type": "Point", "coordinates": [-131.67248018389407, -7.9985053883344674]}}, {"type": "Feature", "properties": {"norad_id": 29935, "name": "FENGYUN 1C DEB", "group": "fengyun-1c-debris", "lat": -13.729749524797299, "lon": -119.12156433971384, "alt_km": 746.8875730410682, "timestamp": "2025-12-27T12:55:14.777823+00:00", "meta": {"OBJECT_NAME": "FENGYUN 1C DEB", "OBJECT_ID": "1999-025JH", "EPOCH": "2025-12-27T03:47:30.407712", "MEAN_MOTION": 14.14246973, "ECCENTRICITY": 0.01509293, "INCLINATION": 98.4597, "RA_OF_ASC_NODE": 62.6019, "ARG_OF_PERICENTER": 174.6305, "MEAN_ANOMALY": 243.0402, "EPHEMERIS_TYPE": 0, "CLASSIFICATION_TYPE": "U", "NORAD_CAT_ID": 29935, "ELEMENT_SET_NO": 999, "REV_AT_EPOCH": 97746, "BSTAR": 0.00015960863, "MEAN_MOTION_DOT": 2.99e-06, "MEAN_MOTION_DDOT": 0}, "tle": {"line1": "1 29935U 99025JH  25361.15799083  .00000299  00000+0  15961-3 0  9996", "line2": "2 29935  98.4597  62.6019 0150929 174.6305 243.0402 14.14246973977467"}}, "geometry": {"type": "Point", "coordinates": [-119.12156433971384, -13.729749524797299]}}, {"type": "Feature", "properties": {"norad_id": 29936, "name": "FENGYUN 1C DEB", "group": "fengyun-1c-debris", "lat": -80.01958972530623, "lon": 174.93164955029886, "alt_km": 835.2287830874002, "timestamp": "2025-12-27T12:55:14.777834+00:00", "meta": {"OBJECT_NAME": "FENGYUN 1C DEB", "OBJECT_ID": "1999-025JJ", "EPOCH": "2025-12-27T06:37:56.685792", "MEAN_MOTION": 14.35329761, "ECCENTRICITY": 0.01146517, "INCLINATION": 98.6564, "RA_OF_ASC_NODE": 114.706, "ARG_OF_PERICENTER": 144.1546, "MEAN_ANOMALY": 216.7403, "EPHEMERIS_TYPE": 0, "CLASSIFICATION_TYPE": "U", "NORAD_CAT_ID": 29936, "ELEMENT_SET_NO": 999, "REV_AT_EPOCH": 99139, "BSTAR": 0.00020668287, "MEAN_MOTION_DOT": 5.92e-06, "MEAN_MOTION_DDOT": 0}, "tle": {"line1": "1 29936U 99025JJ  25361.27635053  .00000592  00000+0  20668-3 0  9992", "line2": "2 29936  98.6564 114.7060 0114651 144.1546 216.7403 14.35329761991396"}}, "geometry": {"type": "Point", "coordinates": [174.93164955029886, -80.01958972530623]}}, {"type": "Feature", "properties": {"norad_id": 29937, "name": "FENGYUN 1C DEB", "group": "fengyun-1c-debris", "lat": 12.624358116580737, "lon": -155.91454783937374, "alt_km": 902.6383201113331, "timestamp": "2025-12-27T12:55:14.777844+00:00", "meta": {"OBJECT_NAME": "FENGYUN 1C DEB", "OBJECT_ID": "1999-025JK", "EPOCH": "2025-12-27T00:27:02.184192", "MEAN_MOTION": 14.04360613, "ECCENTRICITY": 0.00316482, "INCLINATION": 98.8014, "RA_OF_ASC_NODE": 21.5934, "ARG_OF_PERICENTER": 341.4761, "MEAN_ANOMALY": 80.2433, "EPHEMERIS_TYPE": 0, "CLASSIFICATION_TYPE": "U", "NORAD_CAT_ID": 29937, "ELEMENT_SET_NO": 999, "REV_AT_EPOCH": 97136, "BSTAR": 8.8953287e-05, "MEAN_MOTION_DOT": 9.9e-07, "MEAN_MOTION_DDOT": 0}, "tle": {"line1": "1 29937U 99025JK  25361.01877528  .00000099  00000+0  88953-4 0  9994", "line2": "2 29937  98.8014  21.5934 0031648 341.4761  80.2433 14.04360613971368"}}, "geometry": {"type": "Point", "coordinates": [-155.91454783937374, 12.624358116580737]}}, {"type": "Feature", "properties": {"norad_id": 29938, "name": "FENGYUN 1C DEB", "group": "fengyun-1c-debris", "lat": -75.10801719171054, "lon": 135.52706087062174, "alt_km": 852.1009865328788, "timestamp": "2025-12-27T12:55:14.777854+00:00", "meta": {"OBJECT_NAME": "FENGYUN 1C DEB", "OBJECT_ID": "1999-025JL", "EPOCH": "2025-12-27T06:39:13.836672", "MEAN_MOTION": 14.07466284, "ECCENTRICITY": 0.0032578, "INCLINATION": 98.8034, "RA_OF_ASC_NODE": 350.9158, "ARG_OF_PERICENTER": 268.7592, "MEAN_ANOMALY": 106.8853, "EPHEMERIS_TYPE": 0, "CLASSIFICATION_TYPE": "U", "NORAD_CAT_ID": 29938, "ELEMENT_SET_NO": 999, "REV_AT_EPOCH": 97261, "BSTAR": 0.00022885004, "MEAN_MOTION_DOT": 3.44e-06, "MEAN_MOTION_DDOT": 0}, "tle": {"line1": "1 29938U 99025JL  25361.27724348  .00000344  00000+0  22885-3 0  9998", "line2": "2 29938  98.8034 350.9158 0032578 268.7592 106.8853 14.07466284972618"}}, "geometry": {"type": "Point", "coordinates": [135.52706087062174, -75.10801719171054]}}, {"type": "Feature", "properties": {"norad_id": 29939, "name": "FENGYUN 1C DEB", "group": "fengyun-1c-debris", "lat": 44.27208971744944, "lon": -170.70166150271064, "alt_km": 809.9342201534828, "timestamp": "2025-12-27T12:55:14.777864+00:00", "meta": {"OBJECT_NAME": "FENGYUN 1C DEB", "OBJECT_ID": "1999-025JM", "EPOCH": "2025-12-26T22:59:08.806848", "MEAN_MOTION": 14.12087793, "ECCENTRICITY": 0.0067318, "INCLINATION": 98.7103, "RA_OF_ASC_NODE": 0.1389, "ARG_OF_PERICENTER": 98.673, "MEAN_ANOMALY": 325.8846, "EPHEMERIS_TYPE": 0, "CLASSIFICATION_TYPE": "U", "NORAD_CAT_ID": 29939, "ELEMENT_SET_NO": 999, "REV_AT_EPOCH": 97661, "BSTAR": 7.1362e-05, "MEAN_MOTION_DOT": 9.2e-07, "MEAN_MOTION_DDOT": 0}, "tle": {"line1": "1 29939U 99025JM  25360.95774082  .00000092  00000+0  71362-4 0  9998", "line2": "2 29939  98.7103   0.1389 0067318  98.6730 325.8846 14.12087793976618"}}, "geometry": {"type": "Point", "coordinates": [-170.70166150271064, 44.27208971744944]}}]}